{
  "type": "FeatureCollection",
  "features": [
    {
      "type": "Feature",
      "properties": {
        "norad_id": 37238,
        "name": "INTELSAT 17 (IS-17)",
        "group": "intelsat",
        "lat": -0.029105410172427144,
        "lon": 5.996404824965999,
        "alt_km": 35780.76791708761,
        "timestamp": "2025-12-27T13:34:48.957542+00:00",
        "meta_object_name": "INTELSAT 17 (IS-17)",
        "meta_object_id": "2010-065B",
        "meta_epoch": "2025-12-27T04:45:22.696704",
        "meta_mean_motion": 1.00272114,
        "meta_eccentricity": 0.00029457,
        "meta_inclination": 0.0312,
        "meta_ra_of_asc_node": 75.6259,
        "meta_arg_of_pericenter": 225.2784,
        "meta_mean_anomaly": 292.3464,
        "meta_ephemeris_type": 0,
        "meta_classification_type": "U",
        "meta_norad_cat_id": 37238,
        "meta_element_set_no": 999,
        "meta_rev_at_epoch": 5152,
        "meta_bstar": 0,
        "meta_mean_motion_dot": 0,
        "meta_mean_motion_ddot": 0,
        "tle_line1": "1 37238U 10065B   25361.19817936  .00000000  00000+0  00000+0 0  9994",
        "tle_line2": "2 37238   0.0312  75.6259 0002945 225.2784 292.3464  1.00272114 51526"
      },
      "geometry": {
        "type": "Point",
        "coordinates": [
          5.996404824965999,
          -0.029105410172427144
        ]
      }
    },
    {
      "type": "Feature",
      "properties": {
        "norad_id": 37392,
        "name": "INTELSAT 28 (IS-28)",
        "group": "intelsat",
        "lat": -0.09877578098974477,
        "lon": -91.71897276071077,
        "alt_km": 35770.06606688705,
        "timestamp": "2025-12-27T13:34:48.957553+00:00",
        "meta_object_name": "INTELSAT 28 (IS-28)",
        "meta_object_id": "2011-016A",
        "meta_epoch": "2025-12-27T02:34:45.592896",
        "meta_mean_motion": 1.00271118,
        "meta_eccentricity": 0.00038602,
        "meta_inclination": 1.3598,
        "meta_ra_of_asc_node": 84.8973,
        "meta_arg_of_pericenter": 189.2455,
        "meta_mean_anomaly": 188.6848,
        "meta_ephemeris_type": 0,
        "meta_classification_type": "U",
        "meta_norad_cat_id": 37392,
        "meta_element_set_no": 999,
        "meta_rev_at_epoch": 5156,
        "meta_bstar": 0,
        "meta_mean_motion_dot": -2.03e-06,
        "meta_mean_motion_ddot": 0,
        "tle_line1": "1 37392U 11016A   25361.10747214 -.00000203  00000+0  00000+0 0  9990",
        "tle_line2": "2 37392   1.3598  84.8973 0003860 189.2455 188.6848  1.00271118 51563"
      },
      "geometry": {
        "type": "Point",
        "coordinates": [
          -91.71897276071077,
          -0.09877578098974477
        ]
      }
    },
    {
      "type": "Feature",
      "properties": {
        "norad_id": 37834,
        "name": "INTELSAT 18 (IS-18)",
        "group": "intelsat",
        "lat": 0.01164006524057108,
        "lon": 119.98683772217996,
        "alt_km": 35794.33272886167,
        "timestamp": "2025-12-27T13:34:48.957565+00:00",
        "meta_object_name": "INTELSAT 18 (IS-18)",
        "meta_object_id": "2011-056A",
        "meta_epoch": "2025-12-27T03:35:06.926208",
        "meta_mean_motion": 1.00271997,
        "meta_eccentricity": 0.00019967,
        "meta_inclination": 0.0126,
        "meta_ra_of_asc_node": 304.9767,
        "meta_arg_of_pericenter": 346.2266,
        "meta_mean_anomaly": 38.4584,
        "meta_ephemeris_type": 0,
        "meta_classification_type": "U",
        "meta_norad_cat_id": 37834,
        "meta_element_set_no": 999,
        "meta_rev_at_epoch": 5208,
        "meta_bstar": 0,
        "meta_mean_motion_dot": 7.5e-07,
        "meta_mean_motion_ddot": 0,
        "tle_line1": "1 37834U 11056A   25361.14938572  .00000075  00000+0  00000+0 0  9994",
        "tle_line2": "2 37834   0.0126 304.9767 0001996 346.2266  38.4584  1.00271997 52089"
      },
      "geometry": {
        "type": "Point",
        "coordinates": [
          119.98683772217996,
          0.01164006524057108
        ]
      }
    },
    {
      "type": "Feature",
      "properties": {
        "norad_id": 38098,
        "name": "INTELSAT 22 (IS-22)",
        "group": "intelsat",
        "lat": -0.023846309952578578,
        "lon": 12.096097033297697,
        "alt_km": 35783.78776836057,
        "timestamp": "2025-12-27T13:34:48.957576+00:00",
        "meta_object_name": "INTELSAT 22 (IS-22)",
        "meta_object_id": "2012-011A",
        "meta_epoch": "2025-12-27T04:51:38.509056",
        "meta_mean_motion": 1.00270702,
        "meta_eccentricity": 0.00019607,
        "meta_inclination": 0.0346,
        "meta_ra_of_asc_node": 55.204,
        "meta_arg_of_pericenter": 245.33,
        "meta_mean_anomaly": 300.3978,
        "meta_ephemeris_type": 0,
        "meta_classification_type": "U",
        "meta_norad_cat_id": 38098,
        "meta_element_set_no": 999,
        "meta_rev_at_epoch": 546,
        "meta_bstar": 0,
        "meta_mean_motion_dot": 0,
        "meta_mean_motion_ddot": 0,
        "tle_line1": "1 38098U 12011A   25361.20252904  .00000000  00000+0  00000+0 0  9992",
        "tle_line2": "2 38098   0.0346  55.2040 0001960 245.3300 300.3978  1.00270702  5466"
      },
      "geometry": {
        "type": "Point",
        "coordinates": [
          12.096097033297697,
          -0.023846309952578578
        ]
      }
    },
    {
      "type": "Feature",
      "properties": {
        "norad_id": 38356,
        "name": "INTELSAT 19 (IS-19)",
        "group": "intelsat",
        "lat": 0.02733247282378259,
        "lon": 105.99390384893735,
        "alt_km": 35798.65673722502,
        "timestamp": "2025-12-27T13:34:48.957588+00:00",
        "meta_object_name": "INTELSAT 19 (IS-19)",
        "meta_object_id": "2012-030A",
        "meta_epoch": "2025-12-27T04:37:38.522208",
        "meta_mean_motion": 1.00271931,
        "meta_eccentricity": 0.00030562,
        "meta_inclination": 0.0097,
        "meta_ra_of_asc_node": 357.2278,
        "meta_arg_of_pericenter": 276.1124,
        "meta_mean_anomaly": 58.0074,
        "meta_ephemeris_type": 0,
        "meta_classification_type": "U",
        "meta_norad_cat_id": 38356,
        "meta_element_set_no": 999,
        "meta_rev_at_epoch": 4872,
        "meta_bstar": 0,
        "meta_mean_motion_dot": -3.4e-07,
        "meta_mean_motion_ddot": 0,
        "tle_line1": "1 38356U 12030A   25361.19280697 -.00000034  00000+0  00000+0 0  9996",
        "tle_line2": "2 38356   0.0097 357.2278 0003056 276.1124  58.0074  1.00271931 48723"
      },
      "geometry": {
        "type": "Point",
        "coordinates": [
          105.99390384893735,
          0.02733247282378259
        ]
      }
    },
    {
      "type": "Feature",
      "properties": {
        "norad_id": 38740,
        "name": "INTELSAT 20 (IS-20)",
        "group": "intelsat",
        "lat": -0.012692791102865137,
        "lon": 8.48886759229423,
        "alt_km": 35793.430581385524,
        "timestamp": "2025-12-27T13:34:48.957599+00:00",
        "meta_object_name": "INTELSAT 20 (IS-20)",
        "meta_object_id": "2012-043A",
        "meta_epoch": "2025-12-26T23:37:51.657024",
        "meta_mean_motion": 1.00270086,
        "meta_eccentricity": 0.00016538,
        "meta_inclination": 0.0132,
        "meta_ra_of_asc_node": 63.1517,
        "meta_arg_of_pericenter": 118.2124,
        "meta_mean_anomaly": 337.3262,
        "meta_ephemeris_type": 0,
        "meta_classification_type": "U",
        "meta_norad_cat_id": 38740,
        "meta_element_set_no": 999,
        "meta_rev_at_epoch": 4902,
        "meta_bstar": 0,
        "meta_mean_motion_dot": -2e-08,
        "meta_mean_motion_ddot": 0,
        "tle_line1": "1 38740U 12043A   25360.98462566 -.00000002  00000+0  00000+0 0  9995",
        "tle_line2": "2 38740   0.0132  63.1517 0001653 118.2124 337.3262  1.00270086 49022"
      },
      "geometry": {
        "type": "Point",
        "coordinates": [
          8.48886759229423,
          -0.012692791102865137
        ]
      }
    },
    {
      "type": "Feature",
      "properties": {
        "norad_id": 38749,
        "name": "INTELSAT 21 (IS-21)",
        "group": "intelsat",
        "lat": -0.013281694824060004,
        "lon": -118.00220875844033,
        "alt_km": 35779.26338591101,
        "timestamp": "2025-12-27T13:34:48.957611+00:00",
        "meta_object_name": "INTELSAT 21 (IS-21)",
        "meta_object_id": "2012-045A",
        "meta_epoch": "2025-12-27T05:52:38.754336",
        "meta_mean_motion": 1.00271047,
        "meta_eccentricity": 0.00019506,
        "meta_inclination": 0.002,
        "meta_ra_of_asc_node": 31.4774,
        "meta_arg_of_pericenter": 241.6439,
        "meta_mean_anomaly": 213.0375,
        "meta_ephemeris_type": 0,
        "meta_classification_type": "U",
        "meta_norad_cat_id": 38749,
        "meta_element_set_no": 999,
        "meta_rev_at_epoch": 4880,
        "meta_bstar": 0,
        "meta_mean_motion_dot": -2.62e-06,
        "meta_mean_motion_ddot": 0,
        "tle_line1": "1 38749U 12045A   25361.24489299 -.00000262  00000+0  00000+0 0  9996",
        "tle_line2": "2 38749   0.0020  31.4774 0001950 241.6439 213.0375  1.00271047 48808"
      },
      "geometry": {
        "type": "Point",
        "coordinates": [
          -118.00220875844033,
          -0.013281694824060004
        ]
      }
    }
  ]
}